satname,norad_id,inclination_deg,eccentricity,mean_motion_rev_per_day,perigee_km,apogee_km,l1,l2
STARLINK-1474,45738,53.0391,0.0003462,15.6626324,367.27207228096086,371.9442110170394,1 45738U 20038J   25301.46428665  .00078120  00000+0  74040-3 0  9997,2 45738  53.0391   9.1180 0003462 320.0970  39.9790 15.66263240297689
STARLINK-1475,45739,53.0493,0.0006193,15.75119262,340.1286287745843,348.4550291221203,1 45739U 20038K   25301.66674769  .00189051  00000+0  12152-2 0  9999,2 45739  53.0493 334.8381 0006193 355.1630 325.4492 15.75119262  5919
STARLINK-1480,45741,53.0532,0.0001427,15.06405464,546.2065667663373,548.1830564653737,1 45741U 20038M   25301.20188123  .00000912  00000+0  80112-4 0  9997,2 45741  53.0532 111.3783 0001427  83.6267 276.4885 15.06405464296238
STARLINK-1500,45744,53.0395,0.0003542,15.2729079,481.484692574797,486.34577037557483,1 45744U 20038Q   25300.83442280  .00027297  00000+0  10166-2 0  9990,2 45744  53.0395  92.3708 0003542 175.0775 185.0259 15.27290790296465
STARLINK-1504,45746,53.0293,0.0002544,15.40012053,444.3376318032633,447.8097902130239,1 45746U 20038S   25301.52065523  .00045382  00000+0  11231-2 0  9999,2 45746  53.0293  54.0594 0002544 187.0985 172.9983 15.40012053297053
STARLINK-1506,45747,53.0549,0.0002972,15.21154539,500.3120496799638,504.40181527342884,1 45747U 20038T   25298.73906845  .00021992  00000+0  98638-3 0  9997,2 45747  53.0549 104.3276 0002972 185.6499 174.4464 15.21154539296115
STARLINK-1464,45751,53.0539,0.0001248,15.06416456,546.2968459217363,548.0254003332693,1 45751U 20038X   25301.13737694  .00002505  00000+0  18692-3 0  9996,2 45751  53.0539  91.6678 0001248  83.7056 276.4075 15.06416456296501
STARLINK-1477,45754,53.0535,0.000133,15.06404078,546.2779897879018,548.1201291797242,1 45754U 20038AA  25301.15211699  .00001683  00000+0  13181-3 0  9997,2 45754  53.0535  91.6007 0001330  87.4234 272.6907 15.06404078296506
STARLINK-1478,45755,53.0537,0.0001303,15.06405084,546.2936053675248,548.0983471411364,1 45755U 20038AB  25300.83880973  .00001613  00000+0  12711-3 0  9990,2 45755  53.0537  93.0079 0001303  88.7829 271.3309 15.06405084296441
STARLINK-1484,45756,53.0174,0.000141,15.59715419,387.52594040837084,389.4341264117911,1 45756U 20038AC  25301.44441984  .00068599  00000+0  84152-3 0  9998,2 45756  53.0174 357.1241 0001410 327.0009  33.0915 15.59715419297847
STARLINK-1493,45759,53.0536,0.000127,15.06398854,546.335550552526,548.0945899783737,1 45759U 20038AF  25301.15949415  .00000511  00000+0  53201-4 0  9993,2 45759  53.0536  91.5674 0001270  89.6213 270.4922 15.06398854296490
STARLINK-1494,45760,53.0549,0.0001479,15.5099354,412.8194460588602,414.82850811588287,1 45760U 20038AG  25300.79932336  .00038187  00000+0  65138-3 0  9999,2 45760  53.0549  79.4632 0001479  16.0008 344.1047 15.50993540296648
STARLINK-1502,45764,53.0547,0.0001262,15.06395239,546.3521689264999,548.100130585497,1 45764U 20038AL  25301.12632326  .00000513  00000+0  53343-4 0  9995,2 45764  53.0547  91.7156 0001262  82.8107 277.3025 15.06395239296509
STARLINK-1470,45772,53.0496,0.0003025,15.17413457,511.57645527615114,515.7459932018155,1 45772U 20038AU  25301.07324727  .00016485  00000+0  82813-3 0  9999,2 45772  53.0496  64.6956 0003025 200.0797 160.0079 15.17413457296878
STARLINK-1482,45773,53.0543,0.0001358,15.06399324,546.2731671661659,548.1540923972152,1 45773U 20038AV  25301.09130606  .00001348  00000+0  10934-3 0  9990,2 45773  53.0543  71.8747 0001358  85.9390 274.1754 15.06399324296776
STARLINK-1485,45774,53.0393,0.0007788,16.09573239,242.85382119297628,253.17471440770078,1 45774U 20038AW  25301.66416141  .00940308  51456-3  10024-2 0  9997,2 45774  53.0393 358.7399 0007788   9.0271 351.0901 16.09573239297849
STARLINK-1496,45780,53.0547,0.0001312,15.06384254,546.3512055183419,548.1684296432759,1 45780U 20038BC  25301.52256720 -.00001205  00000+0 -62070-4 0  9995,2 45780  53.0547  69.9393 0001312  86.0534 274.0605 15.06384254296821
STARLINK-1497,45781,53.0406,0.0005792,15.53307698,403.1464125341763,411.00640374616614,1 45781U 20038BD  25301.66674769  .00188297  00000+0  28712-2 0  9996,2 45781  53.0406  15.6090 0005792 271.2324  83.6698 15.53307698  5912
STARLINK-1510,45784,53.0325,0.0001261,15.68490666,362.368192939648,364.06836274071884,1 45784U 20038BG  25301.66674769  .00209569  00000+0  17781-2 0  9999,2 45784  53.0325 352.1322 0001261  53.4568  18.0998 15.68490666  5952
STARLINK-1513,45786,53.055,0.0001422,15.06398407,546.2316549989409,548.2012255173504,1 45786U 20038BJ  25300.75588620  .00001229  00000+0  10138-3 0  9993,2 45786  53.0550  73.3819 0001422  98.1398 261.9753 15.06398407296720
STARLINK-1522,46027,53.0547,0.0001343,15.06399908,546.281765555842,548.1419142542409,1 46027U 20055A   25301.46635393  .00001263  00000+0  10367-3 0  9992,2 46027  53.0547   0.1925 0001343  81.5361 278.5780 15.06399908288956
STARLINK-1523,46028,53.0553,0.0001327,15.06399079,546.295386543853,548.1333748002826,1 46028U 20055B   25301.54744896  .00005772  00000+0  40609-3 0  9992,2 46028  53.0553 359.8291 0001327  99.8414 260.2725 15.06399079288986
STARLINK-1526,46029,53.0557,0.0001511,15.06398727,546.1690387460494,548.2618802593106,1 46029U 20055C   25301.54007195  .00003003  00000+0  22042-3 0  9993,2 46029  53.0557 359.8582 0001511  84.2367 275.8794 15.06398727288970
STARLINK-1555,46032,53.0548,0.0001299,15.06386911,546.3520661398188,548.1512821173565,1 46032U 20055F   25301.45897897  .00006185  00000+0  43387-3 0  9992,2 46032  53.0548   0.2258 0001299 103.7589 256.3544 15.06386911288965
STARLINK-1556,46033,53.0559,0.0001516,15.06398002,546.167797757561,548.2675652969992,1 46033U 20055G   25301.44054836  .00001558  00000+0  12346-3 0  9990,2 46033  53.0559   0.3059 0001516 110.2806 249.8347 15.06398002288934
STARLINK-1557,46034,53.0564,0.0001417,15.0637226,546.3152444096268,548.27791228573,1 46034U 20055H   25301.57694538  .00009188  00000+0  63538-3 0  9990,2 46034  53.0564 359.6952 0001417  81.7110 278.4040 15.06372260288951
STARLINK-1558,46035,53.0558,0.0001395,15.06396866,546.2550757497829,548.1872506773198,1 46035U 20055J   25301.45160617  .00004072  00000+0  29216-3 0  9996,2 46035  53.0558   0.2605 0001395  93.9094 266.2055 15.06396866288960
STARLINK-1560,46036,53.0546,0.0001404,15.06395063,546.254368111584,548.1990102355048,1 46036U 20055K   25301.43686103  .00009805  00000+0  67634-3 0  9993,2 46036  53.0546   0.3275 0001404  92.1035 268.0115 15.06395063288964
